#aV2024  7 10  0  0  0.00000000     288 DD+AD WGS84 FIT  NGA
## 2322 259200.00000000   300.00000000 60501 0.0000000000000
+   31     2  3  4  5  6  7  8  9 10 11 12 13 14 15 16 17 18
+         19 20 21 22 23 24 25 26 27 28 29 30 31 32  0  0  0
+          0  0  0  0  0  0  0  0  0  0  0  0  0  0  0  0  0
+          0  0  0  0  0  0  0  0  0  0  0  0  0  0  0  0  0
+          0  0  0  0  0  0  0  0  0  0  0  0  0  0  0  0  0
++         2  2  2  2  2  2  2  2  2  2  2  2  2  2  2  2  2
++         2  2  2  2  2  2  2  2  2  2  2  2  2  2  0  0  0
++         0  0  0  0  0  0  0  0  0  0  0  0  0  0  0  0  0
++         0  0  0  0  0  0  0  0  0  0  0  0  0  0  0  0  0
++         0  0  0  0  0  0  0  0  0  0  0  0  0  0  0  0  0
%c cc cc ccc ccc cccc cccc cccc cccc ccccc ccccc ccccc ccccc
%c cc cc ccc ccc cccc cccc cccc cccc ccccc ccccc ccccc ccccc
%f  0.0000000  0.000000000  0.00000000000  0.000000000000000
%f  0.0000000  0.000000000  0.00000000000  0.000000000000000
%i    0    0    0    0      0      0      0      0         0
%i    0    0    0    0      0      0      0      0         0
/*      NGA, ST. LOUIS,MO.                                  
/*   EPHEMERIS COMPUTED FROM 2 DAYS OF DATA                 
/*   EPOCHA v9 SMOOTHER                                     
/*   G2296 IERS2010 SATIGS SATAPC                           
*  2024  7 10  0  5  0.00000000
P  2 -17675.321909  -4998.190005  19768.009706   -402.085775                    
V  2  -9799.891963 -21890.351244 -14352.794276      0.073174                    
P  3 -19787.265115   8311.151577  15405.422602    451.166246                    
V  3  11197.421526 -16473.639129  23140.748163      0.165754                    
P  4 -25880.331626   -411.599255  -6258.228877    400.518186                    
V  4  -7351.333846  -3857.766626  30441.584774      0.078421                    
P  5  13337.188057   7179.372175 -22004.922698   -179.200692                    
V  5 -15953.848641  22352.497548  -2317.401622     -0.013014                    
P  6   4109.321914  25078.950476   7587.468129    170.930286                    
V  6  -5104.677494  -8285.206105  30495.223423     -0.225105                    
P  7  -9671.969842  14002.888191 -19750.211071    -73.295599                    
V  7 -11053.950754 -24027.470661 -11780.376769      0.080207                    
P  8 -25476.360655  -6588.540124  -5132.233800    267.465980                    
V  8   6563.308452  -1879.903437 -30415.210202      0.165698                    
P  9 -19359.011266   8881.354067 -15986.082815    266.950325                    
V  9 -19737.571890  -4370.568176  21535.881032      0.150037                    
P 10   8067.366177 -22419.336795  11589.996984    -62.197911                    
V 10  10552.165263 -10100.664550 -27688.196369     -0.094610                    
P 11  12272.925894  22750.466709  -6217.267009   -701.899277                    
V 11    179.219025   8291.840242  30516.856852     -0.070397                    
P 12  19953.887645  -4654.100562  16594.576784   -520.974041                    
V 12 -13205.015852  17225.731617  20414.441975     -0.031042                    
P 13  19958.497746  13910.990018 -11151.899039    663.506841                    
V 13 -13704.170517  -2122.447580 -27474.504379      0.025040                    
P 14 -11470.008102  22524.537049   7826.050158    445.079880                    
V 14  -8890.302756   5555.080137 -29383.207201      0.089576                    
P 15  25889.367857   3929.364690  -5507.750507    179.329829                    
V 15  -6336.068923   3283.009940 -30045.883067      0.042558                    
P 16 -10315.234396 -11406.574903 -21970.820436   -241.123246                    
V 16  18908.607430 -19452.124708   1679.272226      0.106392                    
P 17  -5732.747624  14291.408119  22072.046302    680.578001                    
V 17 -26368.480127  -5758.234605  -3021.278713     -0.072454                    
P 18   9090.333208 -14691.191899 -20098.905192   -634.790166                    
V 18   9920.844395  23595.869767 -12952.930038     -0.041725                    
P 19   4967.525281  15931.092735  20587.820380    508.190682                    
V 19 -25734.521584  -5955.850114  10331.286261      0.054184                    
P 20   6986.431503  16397.782962 -19672.379813    372.933467                    
V 20 -12984.848406  21509.879152  13126.162219     -0.004102                    
P 21 -18520.512759 -11108.058407  16539.255012    109.976438                    
V 21  -7931.254423 -18180.140054 -20638.237868     -0.025094                    
P 22  -5672.567552  21406.490966  15293.621253    -37.664405                    
V 22 -14069.401124  12236.899597 -22692.363807     -0.046087                    
P 23  16043.938898 -21020.942130   -270.423057    270.049832                    
V 23   1686.333652   1737.420097 -32307.274312      0.089666                    
P 24  18322.512507   7374.969454  17517.599192   -482.394654                    
V 24   8745.143223  21391.840007 -17315.814572     -0.017617                    
P 25  19671.319390 -14903.236371   9131.276350    498.348564                    
V 25  -4908.060512  11568.414832  28668.926565      0.004083                    
P 26   -767.625239 -20808.396114 -16428.734908    122.779557                    
V 26  13756.563651 -15841.566263  19973.777924     -0.067835                    
P 27 -18531.121691 -12909.226322 -14599.625997    -30.719297                    
V 27  17934.580381    808.570319 -23544.917708     -0.009731                    
P 28  -3213.525588 -24522.009074   9674.745211   -324.590144                    
V 28   7185.906170  10295.661643  28453.294286     -0.160256                    
P 29  22214.047561  -4698.922975 -13930.681821   -590.328566                    
V 29  16690.166808   5687.785320  24661.479949      0.019019                    
P 30  -1949.404491  22498.521240 -13614.190735   -360.496330                    
V 30  -9288.051107 -15378.054116 -24084.713346      0.064724                    
P 31 -10253.727171 -24219.907954  -1769.340119   -226.880812                    
V 31   2454.834216  -3049.797042  31751.587801      0.002774                    
P 32   2493.750485 -15072.656855  21938.234935   -612.949688                    
V 32  27061.352055   3913.327610   -586.088841      0.018479                    
EOF
